GLOBALSTAR M045         
1 25676U 99019A   25226.53187792 -.00000059  00000+0  30397-3 0  9992
2 25676  51.9964 138.9745 0000766  19.4681 151.8719 12.27064778200555
GLOBALSTAR M019         
1 25677U 99019B   25226.58644187 -.00000163  00000+0 -76474-3 0  9997
2 25677  51.9862 273.2973 0001350  93.5241  63.3424 12.13874974192231
GLOBALSTAR M044         
1 25678U 99019C   25226.21433986 -.00000079  00000+0  63373-4 0  9991
2 25678  51.9937 232.9503 0006076 153.6896 288.2461 11.90254280178239
GLOBALSTAR M042         
1 25679U 99019D   25226.56695078 -.00000057  00000+0  32991-3 0  9999
2 25679  51.9990 246.1487 0002963  61.7971 106.8161 12.22085485192391
GLOBALSTAR M025         
1 25770U 99031A   25226.44492775 -.00000064  00000+0  99654-4 0  9999
2 25770  51.9841  24.3117 0001232 229.4149 164.1444 11.22564050488255
GLOBALSTAR M049         
1 25771U 99031B   25226.50235578 -.00000122  00000+0 -19637-2 0  9990
2 25771  51.9881  61.8741 0003623  98.2511 261.8696 11.12116429123915
GLOBALSTAR M047         
1 25772U 99031C   25226.52065646 -.00000081  00000+0 -31511-3 0  9990
2 25772  51.9840  53.2282 0016690   5.8789 354.2210 11.31929333477711
GLOBALSTAR M052         
1 25773U 99031D   25226.61366353 -.00000033  00000+0  11150-2 0  9992
2 25773  51.9848 169.4735 0002665 281.3599 250.0409 11.15060149485029
